STARLINK-31213          
1 58860U 24019H   26068.56317980  .00000352  00000+0  22325-4 0  9991
2 58860  43.0024 249.5899 0001359 272.2710  87.7986 15.27576365119066
TROLL                   
1 62658U 25009BB  26068.22522958  .00013174  00000+0  48220-3 0  9994
2 62658  97.3932 150.7169 0001816  59.1850 300.9568 15.28164315118170
